UNKNOWN                 
1 87335U          26054.03084315  .00019471  00000+0  10633-1 0  9992
2 87335  89.9958 267.8912 0086539 350.0810   9.8663 14.10028091397152
UNKNOWN                 
1 87405U          26052.28615491  .00002281  00000+0  16098-2 0  9993
2 87405  82.7536   4.4462 0059101 124.8223 235.8525 13.96702522621001
UNKNOWN                 
1 87426U          26053.23916077  .00004622  00000+0  17583-2 0  9997
2 87426  65.7826 140.5681 0069752 261.4661 129.2436 14.30496800632815
UNKNOWN                 
1 87448U          26054.53254813  .00001376  00000+0  11244-2 0  9999
2 87448 100.4519 275.0500 0063972  15.1609 345.1444 13.90841938619356
UNKNOWN                 
1 87456U          26053.00608493  .00003756  00000+0  55206-3 0  9997
2 87456  65.7710 261.5960 0509514 328.3661  28.7697 14.15044008621577
UNKNOWN                 
1 87517U          26043.59194743  .00005788  00000+0  15781-2 0  9996
2 87517  65.8215  82.0543 0675202 276.9785 160.5715 13.61840426601338
UNKNOWN                 
1 87541U          26052.81579115  .00000029  00000+0  13688-3 0  9996
2 87541  99.6987 268.1559 0060182  90.2236 330.0173 13.35608982591524
UNKNOWN                 
1 87553U          26050.75517133  .00005228  00000+0  16107-2 0  9996
2 87553  65.6693 188.7923 0693457 196.8794 160.8105 13.53959633600599
UNKNOWN                 
1 87557U          26053.09264891  .00003231  00000+0  71201-2 0  9998
2 87557 101.7617 282.9717 0063398 233.9262 125.5970 13.28435157574508
UNKNOWN                 
1 87561U          26054.64447422 -.00000036  00000+0  53876-4 0  9999
2 87561 101.9977 115.1379 0175967 159.8358 354.3690 12.32165753551415
UNKNOWN                 
1 87565U          26052.46689339  .00001275  00000+0  70668-3 0  9998
2 87565  99.9525  56.0131 0171527 339.6966  19.7434 14.06215079626370
UNKNOWN                 
1 87569U          26050.33836985 -.00000034  00000+0  71391-4 0  9995
2 87569 101.9928 235.3379 0055839 118.8645   2.8612 12.68543617567169
